#dP2020  6 16  0  0  0.00000000      96 __u+U ITR00 FIT  IAC
## 2110 172800.00000000   900.00000000 59016 0.0000000000000
+  116   C01C02C03C04C05C06C07C08C09C10C11C12C13C14C16C19C20
+        C21C22C23C24C25C26C27C28C29C30C32C33C34C35C36C37C60
+        E01E02E03E04E05E07E08E09E11E12E13E14E15E18E19E21E24
+        E25E26E27E30E31E33E36G01G02G03G04G05G06G07G08G09G10
+        G11G12G13G14G15G16G17G18G19G20G21G22G24G25G26G27G28
+        G29G30G31G32J01J02J03J07R01R02R03R04R05R07R08R09R11
+        R12R13R14R15R16R17R18R19R20R21R22R23R24R26  0  0  0
++        13 13 13  0 13  8  8  8  8  8  8  8  8  7  8  8  8
++         8  8  7  8  7  7  8  8 10  8  8  8  8  8  8  8  0
++         4  4  4  5  4  5  5  5  5  5  5  4  5  4  5  5  4
++         5  5  5  5  4  5  4  3  4  3  3  3  3  3  3  3  3
++         4  3  3  4  3  3  4  3  4  3  3  3  3  3  4  3  4
++         3  3  3  3  8  8  8 16  6  5  6  6  5  5  5  5  5
++         5  6  6  5  6  5  6  6  6  5  9  6  5  8  0  0  0
%c M  cc GPS ccc cccc cccc cccc cccc ccccc ccccc ccccc ccccc
%c cc cc ccc ccc cccc cccc cccc cccc ccccc ccccc ccccc ccccc
%f  0.0000000  0.000000000  0.00000000000  0.000000000000000
%f  0.0000000  0.000000000  0.00000000000  0.000000000000000
%i    0    0    0    0      0      0      0      0         0
%i    0    0    0    0      0      0      0      0         0
/* INFORMATION & ANALYSIS CENTER (IAC)            RAPID DATA
/* S/V CLOCKS ARE ALIGNED TO GNSS TIME                      
/* G:C1WC2W R:C1PC2P E:C1XC5X C:C2IC6I J:C1CC2S             
/* PCV:IGS14_2101 OL/AL:FES2004  NONE     YN ORB:CoN CLK:CoN
*  2020 06 16 19 45  0.00000000
PC01 -34385.327654  24431.390767    549.791412   -412.206601
PC02   4468.500576  41918.850254   -536.594344    278.023963
PC03 -14722.805175  39519.426956  -1029.107039    859.740456
PC04      0.000000      0.000000      0.000000 999999.999999
PC05  21961.020826  35997.926718   -268.054876   -468.681064
PC06 -23182.323638  26045.573864  23810.170969    755.646010
PC07 -14253.193956  38087.280684  12302.460307     41.216783
PC08  -7270.368171  21383.542203 -35485.341958   -315.743126
PC09  -5919.103518  26139.806156  32718.465674    614.457439
PC10  -3271.806176  42243.780227  -1636.390623   -260.616289
PC11 -18871.528628  12195.871228 -16529.341798   -432.628674
PC12 -27836.495507   2159.223623    146.141971    403.044901
PC13   6782.103136  29612.817240 -29049.756731    494.116787
PC14 -15246.485590  22499.422975  -6437.277374    541.801076
PC16 -20749.624650  26312.092972  25559.607333   -616.280267
PC19   9841.317660 -25967.350636  -2605.739327    446.246108
PC20  18001.011175 -16152.839416  13913.156040   -851.696734
PC21 -15739.928582  -3638.494186 -22732.764724   -536.407300
PC22  -4223.228851 -20867.983304 -18011.487924   -784.520747
PC23  13715.717637  24080.859670   3324.907523   -853.038678
PC24 -15706.132911   5325.639036  22442.962651   -790.019058
PC25   -478.792703  21197.700048  18134.864963   -654.139359
PC26 -20974.986831 -12065.689983  13921.973400    720.635066
PC27  26059.371866   4388.668377  -9016.620944    348.636919
PC28  11378.981874  13959.366411 -21315.861788   -213.056184
PC29   9281.647404 -15718.377262  21098.585581    243.369063
PC30  25281.874855  -8501.852009   8235.612780    332.982589
PC32  15788.230718   3558.421902  22752.041814   -878.582775
PC33  -9723.945374  26042.700950   2596.116444   -812.323410
PC34 -25030.711382   8727.496270  -8692.631098   -817.316516
PC35 -11631.691174 -13688.637382  21341.578654   -793.619978
PC36   1148.515960 -21051.757083 -18249.891762   -847.418077
PC37  20649.692439  13123.718831 -13392.326875   -852.351541
PC60      0.000000      0.000000      0.000000 999999.999999
PE01 -15601.220405 -16678.563087  18828.399796   -879.110401
PE02  15626.404210  16586.857417 -18888.431362    140.892652
PE03  18106.000074   5861.600624  22673.949391   -310.562226
PE04 -25235.644896  11514.654126 -10325.250154   -547.232973
PE05    278.943820  19980.550214  21847.736921   -371.056092
PE07  17584.544599 -22320.006548  -8257.637973   -396.563062
PE08  25117.642879 -11868.638328  10205.747899   6162.834830
PE09 -17399.667151  22437.692004   8409.962476   6026.359929
PE11 -10450.581717  13272.826633 -24314.322210   3503.256405
PE12 -26275.816743    152.733104 -13611.452139   5751.912611
PE13  10653.787319 -13104.572147  24310.480321    401.642613
PE14  26552.701278  -5132.972272  -5902.859329  -1051.921469
PE15  26186.542879   -361.601571  13803.885584    863.274709
PE18 -22945.786296  16763.878468  -9432.210746  -1153.024811
PE19 -16504.226424  -7566.692530 -23366.422765      4.754480
PE21  -6630.604120 -28746.922876   2372.441741   -604.955747
PE24  -6744.321828  24019.979921  15907.356127   5399.094858
PE25   6545.334987  28783.621552  -2236.796725   -512.249289
PE26 -11440.004235 -18355.108524  20207.776381   3065.415655
PE27   6422.455827 -24232.970510 -15734.870388    197.060568
PE30  15818.765162  -5004.154048 -24521.517729   3820.864172
PE31 -15644.926754   5514.692104  24522.044447   -472.895686
PE33 -26340.255315 -12602.892657   4821.218672   -466.018460
PE36  11149.552488  18161.796726 -20545.974546    546.102901
PG01  21999.076650  15185.918289    687.003727     10.211356
PG02  -7031.000273 -18934.465294  17913.573510   -473.163660
PG03  12521.006613  12639.064445  19690.568846   -210.992104
PG04  20959.792753   3297.516123  16009.547129   -103.304322
PG05  -2373.863642 -25806.743500  -5450.531272    -14.784428
PG06   5271.701021 -14206.995526  21858.664456   -289.688296
PG07  21385.523049   1718.565403 -15655.290855   -306.006997
PG08  11433.307613  10810.606264 -21422.455279    -37.782328
PG09  24823.196033  -6754.700938   6595.400008   -237.483544
PG10 -11618.515891  18884.886050 -14354.862487   -373.247680
PG11  19232.740711  13030.661563 -13074.509307   -246.896891
PG12 -11232.024354 -13581.164066  19683.300671    105.293909
PG13  -2376.181164 -15050.390067 -21866.737751     18.885247
PG14 -12519.180716  16895.756165  16463.464356     -5.403905
PG15 -13504.612338 -10146.015719 -20877.771352   -223.812496
PG16   1017.307395  25096.494687  -8125.655302   -171.280672
PG17  19997.806870 -14799.690700   9656.417873    281.793656
PG18 -21030.880123  -1639.774145 -16165.749054    221.959662
PG19  14569.956512 -15792.182644  15291.005776   -144.317646
PG20 -14903.619787   7746.332354 -20609.220201    527.497864
PG21 -14444.871506   7873.391233 -20060.247695     12.412024
PG22  10725.557623  19733.346106  14501.028132   -777.613762
PG24 -22140.003529 -14974.695947  -1534.094123    -14.409736
PG25 -14832.988309  -2421.088356  21668.431956     13.721849
PG26  -5085.183310  25434.614547   5099.080602    226.600262
PG27   -233.268814  15947.640079 -21319.907020   -322.268291
PG28  12166.089603 -19805.577341 -12402.669593    708.049092
PG29 -24448.907694   2116.338252  10149.242329   -129.383736
PG30  14225.986748  -8350.475527 -20807.137495   -243.069328
PG31  -4481.043191  15239.855098  21176.349068    -49.566717
PG32 -18610.337511  16267.690788   9604.235145    301.171302
PJ01 -25826.718329  32125.962301  -4420.248583   -286.258502
PJ02 -25146.375431  23754.550383  29004.179934     -0.559204
PJ03 -33825.741030  19343.022531 -11327.865240     -4.180151
PJ07 -25389.571695  33670.538574     35.544852      0.015855
PR01   6733.634152 -20908.474999 -12945.509488     63.173173
PR02  -8481.236694  -6859.563320 -23013.432806    431.915680
PR03 -16632.072335   9617.011306 -16706.972964     16.899914
PR04 -15157.736387  20490.567694   -985.324773     52.985363
PR05  -5246.407334  19705.663756  15327.174184     52.433651
PR07  16806.088800 -10108.780519  16374.527019    -37.625573
PR08  15243.962748 -20433.193940   1120.777651    -52.898886
PR09  14738.017466  15346.217219 -14111.244212    138.411842
PR11   3426.678581 -15558.554510 -19888.073064    -27.326698
PR12  -7251.447037 -23487.815130  -6817.486957    139.612702
PR13 -14242.064865 -18228.049639  10727.480774    -40.069465
PR14 -12652.020680  -2210.000142  22047.735467     52.352922
PR15  -3900.119580  14821.801054  20412.595268    106.857979
PR16   7954.967506  23348.128998   6238.030678     -4.194396
PR17 -25151.037327   -534.295731  -4330.674613    333.636997
PR18 -15829.454634   6851.683873 -18760.304966     39.073819
PR19   1095.164447  10561.895168 -23198.180793    -98.235973
PR20  20061.554045   8543.836904 -13273.081663   -414.439865
PR21  24937.183285    146.684503   5299.735112   -131.838697
PR22  13761.069459  -7571.452897  20139.028830  26551.036993
PR23  -8807.857832 -10613.416744  21443.687950    312.614060
PR24 -20544.294418  -8445.522668  12561.176573      2.900630
PR26  16475.333215   9427.540544 -17018.042542   -392.926556
EOF
